SL-16 R/B               
1 25400U 98043G   25360.76113064  .00000083  00000+0  53518-4 0  9995
2 25400  98.8146 308.6591 0009065 221.5634 138.4857 14.26028711428590
SL-16 R/B               
1 25407U 98045B   25360.67958032  .00000274  00000+0  16238-3 0  9995
2 25407  71.0122 335.1107 0006098 153.3927 206.7510 14.16179076416763
ISS (ZARYA)             
1 25544U 98067A   25360.53473603  .00013978  00000+0  25382-3 0  9997
2 25544  51.6320  74.1581 0003231 305.5588  54.5099 15.49844261544995
CZ-4B R/B               
1 25732U 99025C   25360.72759500  .00000060  00000+0  49707-4 0  9991
2 25732  98.6751  41.6935 0036933 193.2047 277.0546 14.18246998377825
OKEAN-O                 
1 25860U 99039A   25360.44492786  .00000739  00000+0  10419-3 0  9997
2 25860  97.9584  56.0268 0001168 114.6499 245.4834 14.80184052423554
SL-16 R/B               
1 25861U 99039B   25360.76454420  .00000661  00000+0  90788-4 0  9998
2 25861  98.0107  54.9155 0015869 130.8999 229.3591 14.81606323426069
DELTA 2 R/B             
1 25876U 99041E   25360.80447639  .00001413  00000+0  26661-3 0  9990
2 25876  51.7600 232.3000 0504395 133.2170 231.2046 14.11439130352737
HELIOS 1B               
1 25977U 99064A   25360.72970034  .00002429  00000+0  27546-3 0  9999
2 25977  98.1749 255.8107 0000881  31.4027 328.7241 14.87337991674413
TERRA                   
1 25994U 99068A   25360.78908310  .00000503  00000+0  11180-3 0  9994
2 25994  97.9730  51.9566 0003377  66.3807  69.4508 14.60917310384434
SL-16 R/B               
1 26070U 00006B   25360.74666600  .00000210  00000+0  13078-3 0  9996
2 26070  71.0011 251.2072 0018591 289.6850  70.2267 14.15809584338236
TITAN 4B R/B            
1 26474U 00047B   25360.86284062  .00003759  00000+0  24244-3 0  9998
2 26474  67.9887 245.1885 0037967 127.1509 233.3117 15.08881929381924
ENVISAT                 
1 27386U 02009A   25352.94754304  .00000081  00000+0  39999-4 0  9991
2 27386  98.3609 303.5309 0001126  84.8976 298.2993 14.39001403247569
